start=new Date('2022-11-17T00:00:00.000Z').valueOf();
sats=[{"TLE_LINE2":"2 47408  53.0564  58.9819 0001251 101.8479 258.2651 15.06394075101244","LAUNCH_DATE":"2021-01-20","INCLINATION":"53.0564","GP_ID":"218014975","ECCENTRICITY":"0.00012510","BSTAR":"0.00002314300000","FILE":"3660705","MEAN_ANOMALY":"258.2651","OBJECT_NAME":"STARLINK-2135","PERIOD":"95.593","OBJECT_TYPE":"PAYLOAD","DECAY_DATE":null,"TIME_SYSTEM":"UTC","CLASSIFICATION_TYPE":"U","SEMIMAJOR_AXIS":"6925.367","ELEMENT_SET_NO":"999","ARG_OF_PERICENTER":"101.8479","EPHEMERIS_TYPE":"0","APOAPSIS":"548.098","REV_AT_EPOCH":"10124","EPOCH":"2022-11-16T16:53:02.194368","SITE":"AFETR","CENTER_NAME":"EARTH","MEAN_MOTION_DOT":"0.00000063","RA_OF_ASC_NODE":"58.9819","PERIAPSIS":"546.365","REF_FRAME":"TEME","TLE_LINE1":"1 47408U 21005BM  22320.70349762  .00000063  00000-0  23143-4 0  9994","MEAN_MOTION_DDOT":"0.0000000000000","MEAN_MOTION":"15.06394075","RCS_SIZE":"LARGE","MEAN_ELEMENT_THEORY":"SGP4","OBJECT_ID":"2021-005BM","COUNTRY_CODE":"US","NORAD_CAT_ID":"47408"},{"MEAN_ANOMALY":"287.7080","OBJECT_NAME":"STARLINK-1782","BSTAR":"-0.00002481100000","FILE":"3660705","ECCENTRICITY":"0.00014200","LAUNCH_DATE":"2021-02-04","TLE_LINE2":"2 47548  53.0567  38.9545 0001420  72.4064 287.7080 15.06392039 98715","INCLINATION":"53.0567","GP_ID":"218015491","TIME_SYSTEM":"UTC","CLASSIFICATION_TYPE":"U","DECAY_DATE":null,"PERIOD":"95.593","OBJECT_TYPE":"PAYLOAD","CENTER_NAME":"EARTH","SITE":"AFETR","MEAN_MOTION_DOT":"-0.00000651","RA_OF_ASC_NODE":"38.9545","EPOCH":"2022-11-16T17:01:00.246432","APOAPSIS":"548.221","REV_AT_EPOCH":"9871","SEMIMAJOR_AXIS":"6925.373","ARG_OF_PERICENTER":"72.4064","ELEMENT_SET_NO":"999","EPHEMERIS_TYPE":"0","OBJECT_ID":"2021-009A","COUNTRY_CODE":"US","NORAD_CAT_ID":"47548","RCS_SIZE":"LARGE","MEAN_ELEMENT_THEORY":"SGP4","REF_FRAME":"TEME","TLE_LINE1":"1 47548U 21009A   22320.70903063 -.00000651  00000-0 -24811-4 0  9991","MEAN_MOTION_DDOT":"0.0000000000000","MEAN_MOTION":"15.06392039","PERIAPSIS":"546.255"},{"MEAN_MOTION":"15.06391373","MEAN_MOTION_DDOT":"0.0000000000000","TLE_LINE1":"1 47549U 21009B   22320.63899740  .00001146  00000-0  95836-4 0  9993","REF_FRAME":"TEME","PERIAPSIS":"546.407","NORAD_CAT_ID":"47549","COUNTRY_CODE":"US","OBJECT_ID":"2021-009B","MEAN_ELEMENT_THEORY":"SGP4","RCS_SIZE":"LARGE","REV_AT_EPOCH":"9870","APOAPSIS":"548.073","EPHEMERIS_TYPE":"0","ELEMENT_SET_NO":"999","ARG_OF_PERICENTER":"73.9093","SEMIMAJOR_AXIS":"6925.375","RA_OF_ASC_NODE":"39.2609","MEAN_MOTION_DOT":"0.00001146","CENTER_NAME":"EARTH","SITE":"AFETR","EPOCH":"2022-11-16T15:20:09.375360","DECAY_DATE":null,"OBJECT_TYPE":"PAYLOAD","PERIOD":"95.593","CLASSIFICATION_TYPE":"U","TIME_SYSTEM":"UTC","ECCENTRICITY":"0.00012030","GP_ID":"218013744","TLE_LINE2":"2 47549  53.0553  39.2609 0001203  73.9093 286.2029 15.06391373 98709","LAUNCH_DATE":"2021-02-04","INCLINATION":"53.0553","OBJECT_NAME":"STARLINK-1806","MEAN_ANOMALY":"286.2029","FILE":"3660705","BSTAR":"0.00009583600000"},{"MEAN_MOTION_DDOT":"0.0000000000000","TLE_LINE1":"1 47550U 21009C   22320.45194219  .00001136  00000-0  95152-4 0  9994","REF_FRAME":"TEME","MEAN_MOTION":"15.06391723","PERIAPSIS":"546.199","NORAD_CAT_ID":"47550","COUNTRY_CODE":"US","OBJECT_ID":"2021-009C","RCS_SIZE":"LARGE","MEAN_ELEMENT_THEORY":"SGP4","REV_AT_EPOCH":"9881","APOAPSIS":"548.278","SEMIMAJOR_AXIS":"6925.374","EPHEMERIS_TYPE":"0","ARG_OF_PERICENTER":"73.4623","ELEMENT_SET_NO":"999","MEAN_MOTION_DOT":"0.00001136","CENTER_NAME":"EARTH","SITE":"AFETR","RA_OF_ASC_NODE":"30.0886","EPOCH":"2022-11-16T10:50:47.805216","DECAY_DATE":null,"OBJECT_TYPE":"PAYLOAD","PERIOD":"95.593","CLASSIFICATION_TYPE":"U","TIME_SYSTEM":"UTC","ECCENTRICITY":"0.00015010","TLE_LINE2":"2 47550  53.0573  30.0886 0001501  73.4623 286.6531 15.06391723 98817","LAUNCH_DATE":"2021-02-04","INCLINATION":"53.0573","GP_ID":"217971249","OBJECT_NAME":"STARLINK-1909","MEAN_ANOMALY":"286.6531","BSTAR":"0.00009515200000","FILE":"3659788"},{"GP_ID":"217970504","INCLINATION":"53.0564","TLE_LINE2":"2 47551  53.0564  51.0305 0001411  81.2069 278.9080 15.06389385 98508","LAUNCH_DATE":"2021-02-04","ECCENTRICITY":"0.00014110","FILE":"3659788","BSTAR":"0.00005222800000","OBJECT_NAME":"STARLINK-1938","MEAN_ANOMALY":"278.9080","OBJECT_TYPE":"PAYLOAD","PERIOD":"95.593","DECAY_DATE":null,"CLASSIFICATION_TYPE":"U","TIME_SYSTEM":"UTC","EPHEMERIS_TYPE":"0","ELEMENT_SET_NO":"999","ARG_OF_PERICENTER":"81.2069","SEMIMAJOR_AXIS":"6925.381","REV_AT_EPOCH":"9850","APOAPSIS":"548.223","EPOCH":"2022-11-16T05:56:12.578784","RA_OF_ASC_NODE":"51.0305","MEAN_MOTION_DOT":"0.00000496","CENTER_NAME":"EARTH","SITE":"AFETR","PERIAPSIS":"546.269","MEAN_MOTION":"15.06389385","MEAN_MOTION_DDOT":"0.0000000000000","TLE_LINE1":"1 47551U 21009D   22320.24736781  .00000496  00000-0  52228-4 0  9993","REF_FRAME":"TEME","MEAN_ELEMENT_THEORY":"SGP4","RCS_SIZE":"LARGE","COUNTRY_CODE":"US","OBJECT_ID":"2021-009D","NORAD_CAT_ID":"47551"},{"REV_AT_EPOCH":"9871","APOAPSIS":"548.202","EPHEMERIS_TYPE":"0","ARG_OF_PERICENTER":"79.7578","ELEMENT_SET_NO":"999","SEMIMAJOR_AXIS":"6925.355","RA_OF_ASC_NODE":"38.9174","MEAN_MOTION_DOT":"0.00002261","CENTER_NAME":"EARTH","SITE":"AFETR","EPOCH":"2022-11-16T17:11:37.234752","MEAN_MOTION":"15.06397906","TLE_LINE1":"1 47552U 21009E   22320.71640318  .00002261  00000-0  17063-3 0  9995","MEAN_MOTION_DDOT":"0.0000000000000","REF_FRAME":"TEME","PERIAPSIS":"546.238","NORAD_CAT_ID":"47552","COUNTRY_CODE":"US","OBJECT_ID":"2021-009E","MEAN_ELEMENT_THEORY":"SGP4","RCS_SIZE":"LARGE","ECCENTRICITY":"0.00014180","GP_ID":"218014991","INCLINATION":"53.0545","TLE_LINE2":"2 47552  53.0545  38.9174 0001418  79.7578 280.3571 15.06397906 98713","LAUNCH_DATE":"2021-02-04","OBJECT_NAME":"STARLINK-1940","MEAN_ANOMALY":"280.3571","FILE":"3660705","BSTAR":"0.00017063000000","DECAY_DATE":null,"OBJECT_TYPE":"PAYLOAD","PERIOD":"95.592","CLASSIFICATION_TYPE":"U","TIME_SYSTEM":"UTC"},{"DECAY_DATE":null,"OBJECT_TYPE":"PAYLOAD","PERIOD":"95.593","CLASSIFICATION_TYPE":"U","TIME_SYSTEM":"UTC","ECCENTRICITY":"0.00013210","INCLINATION":"53.0555","TLE_LINE2":"2 47554  53.0555  59.4746 0001321  87.3440 272.7701 15.06384132 98419","LAUNCH_DATE":"2021-02-04","GP_ID":"217971505","OBJECT_NAME":"STARLINK-1953","MEAN_ANOMALY":"272.7701","BSTAR":"0.00006395200000","FILE":"3659788","MEAN_MOTION_DDOT":"0.0000000000000","TLE_LINE1":"1 47554U 21009G   22320.58924324  .00000671  00000-0  63952-4 0  9996","REF_FRAME":"TEME","MEAN_MOTION":"15.06384132","PERIAPSIS":"546.347","COUNTRY_CODE":"US","OBJECT_ID":"2021-009G","NORAD_CAT_ID":"47554","RCS_SIZE":"LARGE","MEAN_ELEMENT_THEORY":"SGP4","REV_AT_EPOCH":"9841","APOAPSIS":"548.177","SEMIMAJOR_AXIS":"6925.397","EPHEMERIS_TYPE":"0","ELEMENT_SET_NO":"999","ARG_OF_PERICENTER":"87.3440","MEAN_MOTION_DOT":"0.00000671","SITE":"AFETR","CENTER_NAME":"EARTH","RA_OF_ASC_NODE":"59.4746","EPOCH":"2022-11-16T14:08:30.615936"},{"DECAY_DATE":null,"OBJECT_TYPE":"PAYLOAD","PERIOD":"95.593","CLASSIFICATION_TYPE":"U","TIME_SYSTEM":"UTC","ECCENTRICITY":"0.00012200","GP_ID":"217982632","TLE_LINE2":"2 47555  53.0559  50.1824 0001220  77.2445 282.8681 15.06392977 99135","LAUNCH_DATE":"2021-02-04","INCLINATION":"53.0559","OBJECT_NAME":"STARLINK-1954","MEAN_ANOMALY":"282.8681","FILE":"3660247","BSTAR":"-0.00001734100000","MEAN_MOTION":"15.06392977","MEAN_MOTION_DDOT":"0.0000000000000","TLE_LINE1":"1 47555U 21009H   22320.43166690 -.00000540  00000-0 -17341-4 0  9993","REF_FRAME":"TEME","PERIAPSIS":"546.390","COUNTRY_CODE":"US","OBJECT_ID":"2021-009H","NORAD_CAT_ID":"47555","MEAN_ELEMENT_THEORY":"SGP4","RCS_SIZE":"LARGE","REV_AT_EPOCH":"9913","APOAPSIS":"548.080","EPHEMERIS_TYPE":"0","ARG_OF_PERICENTER":"77.2445","ELEMENT_SET_NO":"999","SEMIMAJOR_AXIS":"6925.370","RA_OF_ASC_NODE":"50.1824","MEAN_MOTION_DOT":"-0.00000540","CENTER_NAME":"EARTH","SITE":"AFETR","EPOCH":"2022-11-16T10:21:36.020160"},{"MEAN_MOTION":"15.06391611","TLE_LINE1":"1 47556U 21009J   22320.59937426  .00000359  00000-0  42987-4 0  9994","MEAN_MOTION_DDOT":"0.0000000000000","REF_FRAME":"TEME","PERIAPSIS":"546.376","COUNTRY_CODE":"US","OBJECT_ID":"2021-009J","NORAD_CAT_ID":"47556","MEAN_ELEMENT_THEORY":"SGP4","RCS_SIZE":"LARGE","REV_AT_EPOCH":"9887","APOAPSIS":"548.103","EPHEMERIS_TYPE":"0","ARG_OF_PERICENTER":"97.7383","ELEMENT_SET_NO":"999","SEMIMAJOR_AXIS":"6925.374","RA_OF_ASC_NODE":"69.4383","MEAN_MOTION_DOT":"0.00000359","SITE":"AFETR","CENTER_NAME":"EARTH","EPOCH":"2022-11-16T14:23:05.936064","DECAY_DATE":null,"OBJECT_TYPE":"PAYLOAD","PERIOD":"95.593","CLASSIFICATION_TYPE":"U","TIME_SYSTEM":"UTC","ECCENTRICITY":"0.00012470","GP_ID":"217982787","INCLINATION":"53.0538","TLE_LINE2":"2 47556  53.0538  69.4383 0001247  97.7383 262.3747 15.06391611 98873","LAUNCH_DATE":"2021-02-04","OBJECT_NAME":"STARLINK-1955","MEAN_ANOMALY":"262.3747","FILE":"3660247","BSTAR":"0.00004298700000"},{"EPOCH":"2022-11-16T18:16:37.767936","RA_OF_ASC_NODE":"68.6967","SITE":"AFETR","CENTER_NAME":"EARTH","MEAN_MOTION_DOT":"0.00003699","ARG_OF_PERICENTER":"81.0206","ELEMENT_SET_NO":"999","EPHEMERIS_TYPE":"0","SEMIMAJOR_AXIS":"6925.336","APOAPSIS":"548.223","REV_AT_EPOCH":"9890","MEAN_ELEMENT_THEORY":"SGP4","RCS_SIZE":"LARGE","COUNTRY_CODE":"US","OBJECT_ID":"2021-009K","NORAD_CAT_ID":"47557","PERIAPSIS":"546.180","MEAN_MOTION":"15.06403977","REF_FRAME":"TEME","MEAN_MOTION_DDOT":"0.0000000000000","TLE_LINE1":"1 47557U 21009K   22320.76154824  .00003699  00000-0  26704-3 0  9995","FILE":"3660247","BSTAR":"0.00026704000000","MEAN_ANOMALY":"279.0950","OBJECT_NAME":"STARLINK-1956","GP_ID":"217982786","LAUNCH_DATE":"2021-02-04","TLE_LINE2":"2 47557  53.0546  68.6967 0001475  81.0206 279.0950 15.06403977 98909","INCLINATION":"53.0546","ECCENTRICITY":"0.00014750","TIME_SYSTEM":"UTC","CLASSIFICATION_TYPE":"U","PERIOD":"95.592","OBJECT_TYPE":"PAYLOAD","DECAY_DATE":null}];
